stk.v.10.0
# WrittenBy    GMAT R2020a
BEGIN Ephemeris
NumberOfEphemerisPoints 17281
ScenarioEpoch           01 Jan 2023 00:00:00.000
InterpolationMethod     Lagrange
InterpolationOrder      7
CentralBody             Earth
CoordinateSystem        J2000
DistanceUnit            Kilometers
BEGIN SegmentBoundaryTimes
   0.000000000000000e+00
   2.499500000027474e+04
   4.999500000014668e+04
   7.499500000001863e+04
END SegmentBoundaryTimes

EphemerisTimePosVel

1.111500000008382e+04  -6.209463043796820e+03  -1.541863096509273e+03  -2.657876646716088e+03  -3.056620944011252e+00   3.592087185957001e-01   6.932648159907150e+00
1.111999999999534e+04  -6.224653036096767e+03  -1.540043960230772e+03  -2.623173756242699e+03  -3.019360811340789e+00   3.684439762583708e-01   6.948473381204686e+00
1.112500000022119e+04  -6.239656501072750e+03  -1.538178675151378e+03  -2.588392260015617e+03  -2.982010200821735e+00   3.776681931634017e-01   6.964090385248632e+00
1.113000000013271e+04  -6.254472989132737e+03  -1.536267297166053e+03  -2.553533200293351e+03  -2.944570231698676e+00   3.868810928988787e-01   6.979498704061654e+00
1.113500000004424e+04  -6.269102056287610e+03  -1.534309883550957e+03  -2.518597621658603e+03  -2.907042025893828e+00   3.960823993920306e-01   6.994697875919841e+00
1.114000000027008e+04  -6.283543264164467e+03  -1.532306492961734e+03  -2.483586570986951e+03  -2.869426707973419e+00   4.052718369174990e-01   7.009687445366534e+00
1.114500000018161e+04  -6.297796180019749e+03  -1.530257185431759e+03  -2.448501097415497e+03  -2.831725405113995e+00   4.144491301056011e-01   7.024466963225968e+00
1.115000000009313e+04  -6.311860376752213e+03  -1.528162022370334e+03  -2.413342252311426e+03  -2.793939247068649e+00   4.236140039505797e-01   7.039035986616747e+00
1.115500000000466e+04  -6.325735432915723e+03  -1.526021066560848e+03  -2.378111089240507e+03  -2.756069366133170e+00   4.327661838188421e-01   7.053394078965087e+00
1.116000000023050e+04  -6.339420932731890e+03  -1.523834382158898e+03  -2.342808663935527e+03  -2.718116897112121e+00   4.419053954571895e-01   7.067540810017922e+00
1.116500000014203e+04  -6.352916466102510e+03  -1.521602034690370e+03  -2.307436034264663e+03  -2.680082977284836e+00   4.510313650010340e-01   7.081475755855783e+00
1.117000000005355e+04  -6.366221628621871e+03  -1.519324091049474e+03  -2.271994260199782e+03  -2.641968746371353e+00   4.601438189826031e-01   7.095198498905503e+00
1.117500000027940e+04  -6.379336021579129e+03  -1.517000619494720e+03  -2.236484403783506e+03  -2.603775346496698e+00   4.692424843379674e-01   7.108708627941946e+00
1.118000000019092e+04  -6.392259251984574e+03  -1.514631689649848e+03  -2.200907529099128e+03  -2.565503922158973e+00   4.783270884169366e-01   7.122005738116193e+00
1.118500000010245e+04  -6.404990932597685e+03  -1.512217372505098e+03  -2.165264702240743e+03  -2.527155620197674e+00   4.873973589931779e-01   7.135089430985706e+00
1.119000000001397e+04  -6.417530681902730e+03  -1.509757740407645e+03  -2.129556991276893e+03  -2.488731589753566e+00   4.964530242680628e-01   7.147959314486395e+00
1.119500000023982e+04  -6.429878124135346e+03  -1.507252867062560e+03  -2.093785466220423e+03  -2.450232982236671e+00   5.054938128806183e-01   7.160615002961117e+00
1.120000000015134e+04  -6.442032889293771e+03  -1.504702827530599e+03  -2.057951198996423e+03  -2.411660951291779e+00   5.145194539156591e-01   7.173056117171227e+00
1.120500000006286e+04  -6.453994613149934e+03  -1.502107698225953e+03  -2.022055263410113e+03  -2.373016652763886e+00   5.235296769119018e-01   7.185282284307941e+00
1.120999999997439e+04  -6.465762937260374e+03  -1.499467556913962e+03  -1.986098735114675e+03  -2.334301244663564e+00   5.325242118700686e-01   7.197293138003507e+00
1.121500000020023e+04  -6.477337508976959e+03  -1.496782482708783e+03  -1.950082691579028e+03  -2.295515887132265e+00   5.415027892609753e-01   7.209088318342163e+00
1.122000000011176e+04  -6.488717981457467e+03  -1.494052556071019e+03  -1.914008212055545e+03  -2.256661742407571e+00   5.504651400336069e-01   7.220667471870929e+00
1.122500000002328e+04  -6.499904013675969e+03  -1.491277858805309e+03  -1.877876377547724e+03  -2.217739974788373e+00   5.594109956231773e-01   7.232030251610206e+00
1.123000000024913e+04  -6.510895270433050e+03  -1.488458474057880e+03  -1.841688270777796e+03  -2.178751750599984e+00   5.683400879591760e-01   7.243176317064164e+00
1.123500000016065e+04  -6.521691422365857e+03  -1.485594486314052e+03  -1.805444976154295e+03  -2.139698238159204e+00   5.772521494733996e-01   7.254105334230937e+00
1.124000000007218e+04  -6.532292145957963e+03  -1.482685981395711e+03  -1.769147579739565e+03  -2.100580607739315e+00   5.861469131079680e-01   7.264816975612651e+00
1.124499999998370e+04  -6.542697123549062e+03  -1.479733046458737e+03  -1.732797169217226e+03  -2.061400031535020e+00   5.950241123233259e-01   7.275310920225225e+00
1.125000000020955e+04  -6.552906043344497e+03  -1.476735769990394e+03  -1.696394833859582e+03  -2.022157683627331e+00   6.038834811062276e-01   7.285586853607995e+00
1.125500000012107e+04  -6.562918599424600e+03  -1.473694241806680e+03  -1.659941664494993e+03  -1.982854739948380e+00   6.127247539777104e-01   7.295644467833143e+00
1.126000000003260e+04  -6.572734491753869e+03  -1.470608553049635e+03  -1.623438753475191e+03  -1.943492378246203e+00   6.215476660010461e-01   7.305483461514928e+00
1.126500000025844e+04  -6.582353426189953e+03  -1.467478796184616e+03  -1.586887194642555e+03  -1.904071778049450e+00   6.303519527896796e-01   7.315103539818725e+00
1.127000000016997e+04  -6.591775114477754e+03  -1.464305064991389e+03  -1.550288083272756e+03  -1.864594120604954e+00   6.391373505180087e-01   7.324504414452911e+00
1.127500000008149e+04  -6.600999274290381e+03  -1.461087454574782e+03  -1.513642516095870e+03  -1.825060588901771e+00   6.479035959230226e-01   7.333685803714701e+00
1.127999999999302e+04  -6.610025629229976e+03  -1.457826061358661e+03  -1.476951591250796e+03  -1.785472367621724e+00   6.566504263136710e-01   7.342647432489802e+00
1.128500000021886e+04  -6.618853908813843e+03  -1.454520983073804e+03  -1.440216408215326e+03  -1.745830643063095e+00   6.653775795830351e-01   7.351389032235170e+00
1.129000000013039e+04  -6.627483848494753e+03  -1.451172318760050e+03  -1.403438067793568e+03  -1.706136603127516e+00   6.740847942138166e-01   7.359910341001083e+00
1.129500000004191e+04  -6.635915189668852e+03  -1.447780168763333e+03  -1.366617672082937e+03  -1.666391437284364e+00   6.827718092861801e-01   7.368211103438983e+00
1.130000000026776e+04  -6.644147679683432e+03  -1.444344634732674e+03  -1.329756324441118e+03  -1.626596336535095e+00   6.914383644855709e-01   7.376291070809143e+00
1.130500000017928e+04  -6.652181071844482e+03  -1.440865819617126e+03  -1.292855129452995e+03  -1.586752493377548e+00   7.000842001105196e-01   7.384150000988106e+00
1.131000000009080e+04  -6.660015125424099e+03  -1.437343827662697e+03  -1.255915192897528e+03  -1.546861101770188e+00   7.087090570804272e-01   7.391787658475935e+00
1.131500000000233e+04  -6.667649605667683e+03  -1.433778764409218e+03  -1.218937621714612e+03  -1.506923357096319e+00   7.173126769433322e-01   7.399203814403296e+00
1.132000000022817e+04  -6.675084283800989e+03  -1.430170736687179e+03  -1.181923523971889e+03  -1.466940456128245e+00   7.258948018836563e-01   7.406398246538289e+00
1.132500000013970e+04  -6.682318937036977e+03  -1.426519852614530e+03  -1.144874008831532e+03  -1.426913596991397e+00   7.344551747299344e-01   7.413370739293117e+00
1.133000000005122e+04  -6.689353348582489e+03  -1.422826221593435e+03  -1.107790186516992e+03  -1.386843979128409e+00   7.429935389625253e-01   7.420121083730573e+00
1.133500000027707e+04  -6.696187307644755e+03  -1.419089954306999e+03  -1.070673168279718e+03  -1.346732803263169e+00   7.515096387212993e-01   7.426649077570254e+00
1.134000000018859e+04  -6.702820609437714e+03  -1.415311162715943e+03  -1.033524066365846e+03  -1.306581271364820e+00   7.600032188133102e-01   7.432954525194694e+00
1.134500000010012e+04  -6.709253055188145e+03  -1.411489960055254e+03  -9.963439939828551e+02  -1.266390586611729e+00   7.684740247204450e-01   7.439037237655159e+00
1.135000000001164e+04  -6.715484452141643e+03  -1.407626460830787e+03  -9.591340652661968e+02  -1.226161953355422e+00   7.769218026070536e-01   7.444897032677377e+00
1.135500000023749e+04  -6.721514613568385e+03  -1.403720780815838e+03  -9.218953952458993e+02  -1.185896577084479e+00   7.853462993275593e-01   7.450533734666970e+00
1.136000000014901e+04  -6.727343358768754e+03  -1.399773037047670e+03  -8.846290998131435e+02  -1.145595664388403e+00   7.937472624340463e-01   7.455947174714726e+00
1.136500000006054e+04  -6.732970513050106e+03  -1.395783347822358e+03  -8.473362957147875e+02  -1.105260422951032e+00   8.021244401740146e-01   7.461137190570819e+00
1.136999999997206e+04  -6.738395907806422e+03  -1.391751832695531e+03  -8.100181004472096e+02  -1.064892061437478e+00   8.104775815234273e-01   7.466103626729865e+00
1.137500000019791e+04  -6.743619380473552e+03  -1.387678612475922e+03  -7.726756322714756e+02  -1.024491789509358e+00   8.188064361771619e-01   7.470846334381882e+00
1.138000000010943e+04  -6.748640774525960e+03  -1.383563809221273e+03  -7.353100101877752e+02  -9.840608177969485e-01   8.271107545537243e-01   7.475365171408014e+00
1.138500000002095e+04  -6.753459939493559e+03  -1.379407546235386e+03  -6.979223538900130e+02  -9.436003578503525e-01   8.353902878068931e-01   7.479660002397874e+00
1.139000000024680e+04  -6.758076730966229e+03  -1.375209948064421e+03  -6.605137837322696e+02  -9.031116221032039e-01   8.436447878331731e-01   7.483730698653593e+00
1.139500000015832e+04  -6.762491010598124e+03  -1.370971140493169e+03  -6.230854206952356e+02  -8.625958238363436e-01   8.518740072792292e-01   7.487577138193682e+00
END Ephemeris

